{
  "type": "FeatureCollection",
  "features": [
    {
      "type": "Feature",
      "properties": {
        "norad_id": 37065,
        "name": "FENGYUN 1C DEB",
        "group": "fengyun-1c-debris",
        "lat": -68.64868566359118,
        "lon": -158.51369681749867,
        "alt_km": 896.0026862500445,
        "timestamp": "2025-12-14T18:52:55.792427+00:00",
        "meta_object_name": "FENGYUN 1C DEB",
        "meta_object_id": "1999-025EEZ",
        "meta_epoch": "2025-12-13T18:30:23.335488",
        "meta_mean_motion": 13.59126537,
        "meta_eccentricity": 0.02987556,
        "meta_inclination": 103.2861,
        "meta_ra_of_asc_node": 162.9273,
        "meta_arg_of_pericenter": 240.3853,
        "meta_mean_anomaly": 116.7203,
        "meta_ephemeris_type": 0,
        "meta_classification_type": "U",
        "meta_norad_cat_id": 37065,
        "meta_element_set_no": 999,
        "meta_rev_at_epoch": 22216,
        "meta_bstar": 0.0032978969,
        "meta_mean_motion_dot": 3.181e-05,
        "meta_mean_motion_ddot": 0,
        "tle_line1": "1 37065U 99025EEZ 25347.77110342  .00003181  00000+0  32979-2 0  9996",
        "tle_line2": "2 37065 103.2861 162.9273 0298755 240.3853 116.7203 13.59126537222160"
      },
      "geometry": {
        "type": "Point",
        "coordinates": [
          -158.51369681749867,
          -68.64868566359118
        ]
      }
    },
    {
      "type": "Feature",
      "properties": {
        "norad_id": 37067,
        "name": "FENGYUN 1C DEB",
        "group": "fengyun-1c-debris",
        "lat": 27.43027258126096,
        "lon": -74.57715504125613,
        "alt_km": 866.5691547429851,
        "timestamp": "2025-12-14T18:52:55.792437+00:00",
        "meta_object_name": "FENGYUN 1C DEB",
        "meta_object_id": "1999-025EFB",
        "meta_epoch": "2025-12-09T13:33:51.155424",
        "meta_mean_motion": 14.00251066,
        "meta_eccentricity": 0.0155817,
        "meta_inclination": 99.5374,
        "meta_ra_of_asc_node": 284.984,
        "meta_arg_of_pericenter": 120.3197,
        "meta_mean_anomaly": 241.3483,
        "meta_ephemeris_type": 0,
        "meta_classification_type": "U",
        "meta_norad_cat_id": 37067,
        "meta_element_set_no": 999,
        "meta_rev_at_epoch": 57364,
        "meta_bstar": 0.0044947,
        "meta_mean_motion_dot": 7.338e-05,
        "meta_mean_motion_ddot": 0,
        "tle_line1": "1 37067U 99025EFB 25343.56517541  .00007338  00000+0  44947-2 0  9999",
        "tle_line2": "2 37067  99.5374 284.9840 0155817 120.3197 241.3483 14.00251066573642"
      },
      "geometry": {
        "type": "Point",
        "coordinates": [
          -74.57715504125613,
          27.43027258126096
        ]
      }
    },
    {
      "type": "Feature",
      "properties": {
        "norad_id": 37069,
        "name": "FENGYUN 1C DEB",
        "group": "fengyun-1c-debris",
        "lat": 9.661963987447276,
        "lon": 139.31940990742638,
        "alt_km": 1054.8800553234469,
        "timestamp": "2025-12-14T18:52:55.792447+00:00",
        "meta_object_name": "FENGYUN 1C DEB",
        "meta_object_id": "1999-025EFD",
        "meta_epoch": "2025-12-13T15:03:57.466080",
        "meta_mean_motion": 13.3798876,
        "meta_eccentricity": 0.04244193,
        "meta_inclination": 95.8483,
        "meta_ra_of_asc_node": 317.6492,
        "meta_arg_of_pericenter": 254.1915,
        "meta_mean_anomaly": 101.2052,
        "meta_ephemeris_type": 0,
        "meta_classification_type": "U",
        "meta_norad_cat_id": 37069,
        "meta_element_set_no": 999,
        "meta_rev_at_epoch": 87720,
        "meta_bstar": 0.0030740188,
        "meta_mean_motion_dot": 2.711e-05,
        "meta_mean_motion_ddot": 0,
        "tle_line1": "1 37069U 99025EFD 25347.62774845  .00002711  00000+0  30740-2 0  9990",
        "tle_line2": "2 37069  95.8483 317.6492 0424419 254.1915 101.2052 13.37988760877204"
      },
      "geometry": {
        "type": "Point",
        "coordinates": [
          139.31940990742638,
          9.661963987447276
        ]
      }
    },
    {
      "type": "Feature",
      "properties": {
        "norad_id": 37077,
        "name": "FENGYUN 1C DEB",
        "group": "fengyun-1c-debris",
        "lat": 38.45168941007575,
        "lon": -108.70384949677606,
        "alt_km": 819.6492350742601,
        "timestamp": "2025-12-14T18:52:55.792457+00:00",
        "meta_object_name": "FENGYUN 1C DEB",
        "meta_object_id": "1999-025EFM",
        "meta_epoch": "2025-12-13T22:13:59.377152",
        "meta_mean_motion": 14.41198653,
        "meta_eccentricity": 0.00954003,
        "meta_inclination": 99.0348,
        "meta_ra_of_asc_node": 63.1288,
        "meta_arg_of_pericenter": 325.0821,
        "meta_mean_anomaly": 34.4132,
        "meta_ephemeris_type": 0,
        "meta_classification_type": "U",
        "meta_norad_cat_id": 37077,
        "meta_element_set_no": 999,
        "meta_rev_at_epoch": 84972,
        "meta_bstar": 0.00046760005,
        "meta_mean_motion_dot": 1.54e-05,
        "meta_mean_motion_ddot": 0,
        "tle_line1": "1 37077U 99025EFM 25347.92638168  .00001540  00000+0  46760-3 0  9998",
        "tle_line2": "2 37077  99.0348  63.1288 0095400 325.0821  34.4132 14.41198653849725"
      },
      "geometry": {
        "type": "Point",
        "coordinates": [
          -108.70384949677606,
          38.45168941007575
        ]
      }
    },
    {
      "type": "Feature",
      "properties": {
        "norad_id": 37079,
        "name": "FENGYUN 1C DEB",
        "group": "fengyun-1c-debris",
        "lat": 51.64612554228851,
        "lon": -44.750678327564174,
        "alt_km": 680.2407191730008,
        "timestamp": "2025-12-14T18:52:55.792467+00:00",
        "meta_object_name": "FENGYUN 1C DEB",
        "meta_object_id": "1999-025EFP",
        "meta_epoch": "2025-12-13T02:49:27.043104",
        "meta_mean_motion": 14.59894284,
        "meta_eccentricity": 0.00117235,
        "meta_inclination": 98.8571,
        "meta_ra_of_asc_node": 122.1025,
        "meta_arg_of_pericenter": 142.0543,
        "meta_mean_anomaly": 218.1483,
        "meta_ephemeris_type": 0,
        "meta_classification_type": "U",
        "meta_norad_cat_id": 37079,
        "meta_element_set_no": 999,
        "meta_rev_at_epoch": 64621,
        "meta_bstar": 0.0055286173,
        "meta_mean_motion_dot": 0.00026542,
        "meta_mean_motion_ddot": 0,
        "tle_line1": "1 37079U 99025EFP 25347.11767411  .00026542  00000+0  55286-2 0  9996",
        "tle_line2": "2 37079  98.8571 122.1025 0011723 142.0543 218.1483 14.59894284646212"
      },
      "geometry": {
        "type": "Point",
        "coordinates": [
          -44.750678327564174,
          51.64612554228851
        ]
      }
    },
    {
      "type": "Feature",
      "properties": {
        "norad_id": 37081,
        "name": "FENGYUN 1C DEB",
        "group": "fengyun-1c-debris",
        "lat": -18.348896992784432,
        "lon": 143.93009729969037,
        "alt_km": 660.2057591725288,
        "timestamp": "2025-12-14T18:52:55.792478+00:00",
        "meta_object_name": "FENGYUN 1C DEB",
        "meta_object_id": "1999-025EFR",
        "meta_epoch": "2025-12-11T04:20:52.810656",
        "meta_mean_motion": 14.13829604,
        "meta_eccentricity": 0.02642543,
        "meta_inclination": 98.708,
        "meta_ra_of_asc_node": 137.4998,
        "meta_arg_of_pericenter": 352.6633,
        "meta_mean_anomaly": 7.0706,
        "meta_ephemeris_type": 0,
        "meta_classification_type": "U",
        "meta_norad_cat_id": 37081,
        "meta_element_set_no": 999,
        "meta_rev_at_epoch": 58552,
        "meta_bstar": 0.0037644522,
        "meta_mean_motion_dot": 9.927e-05,
        "meta_mean_motion_ddot": 0,
        "tle_line1": "1 37081U 99025EFR 25345.18116679  .00009927  00000+0  37645-2 0  9995",
        "tle_line2": "2 37081  98.7080 137.4998 0264254 352.6633   7.0706 14.13829604585528"
      },
      "geometry": {
        "type": "Point",
        "coordinates": [
          143.93009729969037,
          -18.348896992784432
        ]
      }
    },
    {
      "type": "Feature",
      "properties": {
        "norad_id": 37400,
        "name": "FENGYUN 1C DEB",
        "group": "fengyun-1c-debris",
        "lat": 66.1894084716471,
        "lon": 26.62750495520454,
        "alt_km": 733.7984226180606,
        "timestamp": "2025-12-14T18:52:55.792488+00:00",
        "meta_object_name": "FENGYUN 1C DEB",
        "meta_object_id": "1999-025EFS",
        "meta_epoch": "2025-12-13T07:07:28.800768",
        "meta_mean_motion": 13.63645312,
        "meta_eccentricity": 0.04016555,
        "meta_inclination": 98.8378,
        "meta_ra_of_asc_node": 184.6253,
        "meta_arg_of_pericenter": 135.1591,
        "meta_mean_anomaly": 228.2759,
        "meta_ephemeris_type": 0,
        "meta_classification_type": "U",
        "meta_norad_cat_id": 37400,
        "meta_element_set_no": 999,
        "meta_rev_at_epoch": 80201,
        "meta_bstar": 0.00060734109,
        "meta_mean_motion_dot": 7.95e-06,
        "meta_mean_motion_ddot": 0,
        "tle_line1": "1 37400U 99025EFS 25347.29686112  .00000795  00000+0  60734-3 0  9998",
        "tle_line2": "2 37400  98.8378 184.6253 0401655 135.1591 228.2759 13.63645312802014"
      },
      "geometry": {
        "type": "Point",
        "coordinates": [
          26.62750495520454,
          66.1894084716471
        ]
      }
    }
  ]
}